{"type": "FeatureCollection", "features": [ {"type": "Feature", "properties": {"norad_id": 33867, "name": "IRIDIUM 33 DEB", "group": "iridium-33-debris", "lat": 21.168375929615223, "lon": 164.26254659767804, "alt_km": 307.8976305785345, "timestamp": "2025-12-21T03:56:51.217965+00:00", "meta": {"OBJECT_NAME": "IRIDIUM 33 DEB", "OBJECT_ID": "1997-051AL", "EPOCH": "2025-12-20T00:00:24.546240", "MEAN_MOTION": 15.83320916, "ECCENTRICITY": 0.00135723, "INCLINATION": 86.3644, "RA_OF_ASC_NODE": 346.2932, "ARG_OF_PERICENTER": 95.1198, "MEAN_ANOMALY": 265.1629, "EPHEMERIS_TYPE": 0, "CLASSIFICATION_TYPE": "U", "NORAD_CAT_ID": 33867, "ELEMENT_SET_NO": 999, "REV_AT_EPOCH": 89625, "BSTAR": 0.0064207293, "MEAN_MOTION_DOT": 0.01574163, "MEAN_MOTION_DDOT": 0}, "tle": {"line1": "1 33867U 97051AL  25354.00028410  .01574163  00000+0  64207-2 0  9990", "line2": "2 33867  86.3644 346.2932 0013572  95.1198 265.1629 15.83320916896259"}}, "geometry": {"type": "Point", "coordinates": [164.26254659767804, 21.168375929615223]}}, {"type": "Feature", "properties": {"norad_id": 33870, "name": "IRIDIUM 33 DEB", "group": "iridium-33-debris", "lat": -50.44429726100645, "lon": -120.94722699236418, "alt_km": 743.1507408033976, "timestamp": "2025-12-21T03:56:51.217974+00:00", "meta": {"OBJECT_NAME": "IRIDIUM 33 DEB", "OBJECT_ID": "1997-051AP", "EPOCH": "2025-12-20T15:47:58.553376", "MEAN_MOTION": 14.45887676, "ECCENTRICITY": 0.0022292, "INCLINATION": 86.3742, "RA_OF_ASC_NODE": 54.8669, "ARG_OF_PERICENTER": 152.7966, "MEAN_ANOMALY": 324.4467, "EPHEMERIS_TYPE": 0, "CLASSIFICATION_TYPE": "U", "NORAD_CAT_ID": 33870, "ELEMENT_SET_NO": 999, "REV_AT_EPOCH": 88251, "BSTAR": 0.00045247, "MEAN_MOTION_DOT": 1.632e-05, "MEAN_MOTION_DDOT": 0}, "tle": {"line1": "1 33870U 97051AP  25354.65831659  .00001632  00000+0  45247-3 0  9991", "line2": "2 33870  86.3742  54.8669 0022292 152.7966 324.4467 14.45887676882514"}}, "geometry": {"type": "Point", "coordinates": [-120.94722699236418, -50.44429726100645]}}, {"type": "Feature", "properties": {"norad_id": 33881, "name": "IRIDIUM 33 DEB", "group": "iridium-33-debris", "lat": 63.881424121276766, "lon": 110.48612835595185, "alt_km": 692.3260479395622, "timestamp": "2025-12-21T03:56:51.217984+00:00", "meta": {"OBJECT_NAME": "IRIDIUM 33 DEB", "OBJECT_ID": "1997-051BA", "EPOCH": "2025-12-20T18:27:12.976416", "MEAN_MOTION": 14.56702482, "ECCENTRICITY": 0.0061363, "INCLINATION": 86.3866, "RA_OF_ASC_NODE": 103.253, "ARG_OF_PERICENTER": 148.7613, "MEAN_ANOMALY": 2.955, "EPHEMERIS_TYPE": 0, "CLASSIFICATION_TYPE": "U", "NORAD_CAT_ID": 33881, "ELEMENT_SET_NO": 999, "REV_AT_EPOCH": 87617, "BSTAR": 0.0011798, "MEAN_MOTION_DOT": 5.428e-05, "MEAN_MOTION_DDOT": 0}, "tle": {"line1": "1 33881U 97051BA  25354.76890019  .00005428  00000+0  11798-2 0  9990", "line2": "2 33881  86.3866 103.2530 0061363 148.7613   2.9550 14.56702482876174"}}, "geometry": {"type": "Point", "coordinates": [110.48612835595185, 63.881424121276766]}}, {"type": "Feature", "properties": {"norad_id": 33884, "name": "IRIDIUM 33 DEB", "group": "iridium-33-debris", "lat": -76.2643346910008, "lon": -9.041266506305519, "alt_km": 638.0748348324032, "timestamp": "2025-12-21T03:56:51.217993+00:00", "meta": {"OBJECT_NAME": "IRIDIUM 33 DEB", "OBJECT_ID": "1997-051BD", "EPOCH": "2025-12-20T19:06:20.176704", "MEAN_MOTION": 14.77573333, "ECCENTRICITY": 0.0009102, "INCLINATION": 86.3692, "RA_OF_ASC_NODE": 6.1816, "ARG_OF_PERICENTER": 292.2796, "MEAN_ANOMALY": 192.6098, "EPHEMERIS_TYPE": 0, "CLASSIFICATION_TYPE": "U", "NORAD_CAT_ID": 33884, "ELEMENT_SET_NO": 999, "REV_AT_EPOCH": 88966, "BSTAR": 0.00096382, "MEAN_MOTION_DOT": 6.912e-05, "MEAN_MOTION_DDOT": 0}, "tle": {"line1": "1 33884U 97051BD  25354.79606686  .00006912  00000+0  96382-3 0  9993", "line2": "2 33884  86.3692   6.1816 0009102 292.2796 192.6098 14.77573333889668"}}, "geometry": {"type": "Point", "coordinates": [-9.041266506305519, -76.2643346910008]}}, {"type": "Feature", "properties": {"norad_id": 33886, "name": "IRIDIUM 33 DEB", "group": "iridium-33-debris", "lat": 33.43688751499724, "lon": 66.07687764475534, "alt_km": 778.8297739938289, "timestamp": "2025-12-21T03:56:51.218003+00:00", "meta": {"OBJECT_NAME": "IRIDIUM 33 DEB", "OBJECT_ID": "1997-051BF", "EPOCH": "2025-12-20T16:37:10.551936", "MEAN_MOTION": 14.36060348, "ECCENTRICITY": 0.0012997, "INCLINATION": 86.3824, "RA_OF_ASC_NODE": 63.8814, "ARG_OF_PERICENTER": 213.1254, "MEAN_ANOMALY": 261.885, "EPHEMERIS_TYPE": 0, "CLASSIFICATION_TYPE": "U", "NORAD_CAT_ID": 33886, "ELEMENT_SET_NO": 999, "REV_AT_EPOCH": 88166, "BSTAR": 0.00013251, "MEAN_MOTION_DOT": 4.05e-06, "MEAN_MOTION_DDOT": 0}, "tle": {"line1": "1 33886U 97051BF  25354.69248324  .00000405  00000+0  13251-3 0  9990", "line2": "2 33886  86.3824  63.8814 0012997 213.1254 261.8850 14.36060348881661"}}, "geometry": {"type": "Point", "coordinates": [66.07687764475534, 33.43688751499724]}}, {"type": "Feature", "properties": {"norad_id": 33887, "name": "IRIDIUM 33 DEB", "group": "iridium-33-debris", "lat": 5.135639103856418, "lon": 0.09444968934703155, "alt_km": 773.7100508160811, "timestamp": "2025-12-21T03:56:51.218013+00:00", "meta": {"OBJECT_NAME": "IRIDIUM 33 DEB", "OBJECT_ID": "1997-051BG", "EPOCH": "2025-12-20T01:28:45.668352", "MEAN_MOTION": 14.37227129, "ECCENTRICITY": 0.00051987, "INCLINATION": 86.3041, "RA_OF_ASC_NODE": 0.2367, "ARG_OF_PERICENTER": 196.9799, "MEAN_ANOMALY": 225.7634, "EPHEMERIS_TYPE": 0, "CLASSIFICATION_TYPE": "U", "NORAD_CAT_ID": 33887, "ELEMENT_SET_NO": 999, "REV_AT_EPOCH": 88270, "BSTAR": 0.00010697181, "MEAN_MOTION_DOT": 3.38e-06, "MEAN_MOTION_DDOT": 0}, "tle": {"line1": "1 33887U 97051BG  25354.06163968  .00000338  00000+0  10697-3 0  9998", "line2": "2 33887  86.3041   0.2367 0005198 196.9799 225.7634 14.37227129882706"}}, "geometry": {"type": "Point", "coordinates": [0.09444968934703155, 5.135639103856418]}}, {"type": "Feature", "properties": {"norad_id": 33953, "name": "IRIDIUM 33 DEB", "group": "iridium-33-debris", "lat": 49.81876788323347, "lon": 54.417356838984475, "alt_km": 692.3090342184596, "timestamp": "2025-12-21T03:56:51.218022+00:00", "meta": {"OBJECT_NAME": "IRIDIUM 33 DEB", "OBJECT_ID": "1997-051BN", "EPOCH": "2025-12-20T15:12:49.112064", "MEAN_MOTION": 14.55391351, "ECCENTRICITY": 0.0017918, "INCLINATION": 86.384, "RA_OF_ASC_NODE": 50.3533, "ARG_OF_PERICENTER": 78.7274, "MEAN_ANOMALY": 73.2547, "EPHEMERIS_TYPE": 0, "CLASSIFICATION_TYPE": "U", "NORAD_CAT_ID": 33953, "ELEMENT_SET_NO": 999, "REV_AT_EPOCH": 88418, "BSTAR": 0.0006589, "MEAN_MOTION_DOT": 2.887e-05, "MEAN_MOTION_DDOT": 0}, "tle": {"line1": "1 33953U 97051BN  25354.63390176  .00002887  00000+0  65890-3 0  9994", "line2": "2 33953  86.3840  50.3533 0017918  78.7274  73.2547 14.55391351884188"}}, "geometry": {"type": "Point", "coordinates": [54.417356838984475, 49.81876788323347]}}, {"type": "Feature", "properties": {"norad_id": 33960, "name": "IRIDIUM 33 DEB", "group": "iridium-33-debris", "lat": 43.88346545638135, "lon": -70.8468091895837, "alt_km": 603.0711658353775, "timestamp": "2025-12-21T03:56:51.218032+00:00", "meta": {"OBJECT_NAME": "IRIDIUM 33 DEB", "OBJECT_ID": "1997-051BV", "EPOCH": "2025-12-20T19:54:30.769920", "MEAN_MOTION": 14.85559199, "ECCENTRICITY": 0.000737, "INCLINATION": 86.2542, "RA_OF_ASC_NODE": 285.6986, "ARG_OF_PERICENTER": 47.5357, "MEAN_ANOMALY": 6.3643, "EPHEMERIS_TYPE": 0, "CLASSIFICATION_TYPE": "U", "NORAD_CAT_ID": 33960, "ELEMENT_SET_NO": 999, "REV_AT_EPOCH": 88987, "BSTAR": 0.0019148, "MEAN_MOTION_DOT": 0.00016604, "MEAN_MOTION_DDOT": 0}, "tle": {"line1": "1 33960U 97051BV  25354.82952280  .00016604  00000+0  19148-2 0  9999", "line2": "2 33960  86.2542 285.6986 0007370  47.5357   6.3643 14.85559199889870"}}, "geometry": {"type": "Point", "coordinates": [-70.8468091895837, 43.88346545638135]}}, {"type": "Feature", "properties": {"norad_id": 33966, "name": "IRIDIUM 33 DEB", "group": "iridium-33-debris", "lat": 1.7246617435220122, "lon": 42.52051923837322, "alt_km": 735.2341850422654, "timestamp": "2025-12-21T03:56:51.218042+00:00", "meta": {"OBJECT_NAME": "IRIDIUM 33 DEB", "OBJECT_ID": "1997-051CB", "EPOCH": "2025-12-20T09:48:07.873344", "MEAN_MOTION": 14.49621404, "ECCENTRICITY": 0.00082754, "INCLINATION": 86.3914, "RA_OF_ASC_NODE": 42.7361, "ARG_OF_PERICENTER": 163.9635, "MEAN_ANOMALY": 214.8558, "EPHEMERIS_TYPE": 0, "CLASSIFICATION_TYPE": "U", "NORAD_CAT_ID": 33966, "ELEMENT_SET_NO": 999, "REV_AT_EPOCH": 88553, "BSTAR": 0.00035675491, "MEAN_MOTION_DOT": 1.39e-05, "MEAN_MOTION_DDOT": 0}, "tle": {"line1": "1 33966U 97051CB  25354.40842446  .00001390  00000+0  35675-3 0  9991", "line2": "2 33966  86.3914  42.7361 0008275 163.9635 214.8558 14.49621404885535"}}, "geometry": {"type": "Point", "coordinates": [42.52051923837322, 1.7246617435220122]}}, {"type": "Feature", "properties": {"norad_id": 34071, "name": "IRIDIUM 33 DEB", "group": "iridium-33-debris", "lat": 64.0861844205072, "lon": 21.726285698633937, "alt_km": 714.4866672015069, "timestamp": "2025-12-21T03:56:51.218051+00:00", "meta": {"OBJECT_NAME": "IRIDIUM 33 DEB", "OBJECT_ID": "1997-051CE", "EPOCH": "2025-12-20T07:46:13.736640", "MEAN_MOTION": 14.49495052, "ECCENTRICITY": 0.00099424, "INCLINATION": 86.3449, "RA_OF_ASC_NODE": 14.5318, "ARG_OF_PERICENTER": 87.1409, "MEAN_ANOMALY": 273.0933, "EPHEMERIS_TYPE": 0, "CLASSIFICATION_TYPE": "U", "NORAD_CAT_ID": 34071, "ELEMENT_SET_NO": 999, "REV_AT_EPOCH": 88444, "BSTAR": 0.00041457819, "MEAN_MOTION_DOT": 1.609e-05, "MEAN_MOTION_DDOT": 0}, "tle": {"line1": "1 34071U 97051CE  25354.32377010  .00001609  00000+0  41458-3 0  9999", "line2": "2 34071  86.3449  14.5318 0009942  87.1409 273.0933 14.49495052884444"}}, "geometry": {"type": "Point", "coordinates": [21.726285698633937, 64.0861844205072]}}]}